{"type": "FeatureCollection", "features": [ {"type": "Feature", "properties": {"norad_id": 66857, "name": "STARLINK-36083", "group": "last-30-days", "lat": 41.8871209670356, "lon": -172.08287836012823, "alt_km": 338.89181660380655, "timestamp": "2025-12-19T06:59:42.651340+00:00", "meta": {"OBJECT_NAME": "STARLINK-36083", "OBJECT_ID": "2025-281K", "EPOCH": "2025-12-18T22:00:00.999936", "MEAN_MOTION": 15.75073594, "ECCENTRICITY": 0.00015291, "INCLINATION": 43.0008, "RA_OF_ASC_NODE": 84.4345, "ARG_OF_PERICENTER": 261.7961, "MEAN_ANOMALY": 232.148, "EPHEMERIS_TYPE": 0, "CLASSIFICATION_TYPE": "U", "NORAD_CAT_ID": 66857, "ELEMENT_SET_NO": 999, "REV_AT_EPOCH": 238, "BSTAR": -0.00048097232, "MEAN_MOTION_DOT": -0.00073827, "MEAN_MOTION_DDOT": 0}, "tle": {"line1": "1 66857U 25281K   25352.91667824 -.00073827  00000+0 -48097-3 0  9999", "line2": "2 66857  43.0008  84.4345 0001529 261.7961 232.1480 15.75073594  2385"}}, "geometry": {"type": "Point", "coordinates": [-172.08287836012823, 41.8871209670356]}}, {"type": "Feature", "properties": {"norad_id": 66858, "name": "STARLINK-35118", "group": "last-30-days", "lat": 41.50115523762186, "lon": -169.55078498760676, "alt_km": 339.2202083238226, "timestamp": "2025-12-19T06:59:42.651352+00:00", "meta": {"OBJECT_NAME": "STARLINK-35118", "OBJECT_ID": "2025-281L", "EPOCH": "2025-12-18T22:00:00.999936", "MEAN_MOTION": 15.75097711, "ECCENTRICITY": 0.00018618, "INCLINATION": 43.0008, "RA_OF_ASC_NODE": 84.4293, "ARG_OF_PERICENTER": 259.9173, "MEAN_ANOMALY": 235.9614, "EPHEMERIS_TYPE": 0, "CLASSIFICATION_TYPE": "U", "NORAD_CAT_ID": 66858, "ELEMENT_SET_NO": 999, "REV_AT_EPOCH": 217, "BSTAR": -0.00091594723, "MEAN_MOTION_DOT": -0.00139243, "MEAN_MOTION_DDOT": 0}, "tle": {"line1": "1 66858U 25281L   25352.91667824 -.00139243  00000+0 -91595-3 0  9996", "line2": "2 66858  43.0008  84.4293 0001861 259.9173 235.9614 15.75097711  2175"}}, "geometry": {"type": "Point", "coordinates": [-169.55078498760676, 41.50115523762186]}}, {"type": "Feature", "properties": {"norad_id": 66859, "name": "STARLINK-35646", "group": "last-30-days", "lat": 41.063934896365716, "lon": -167.06970647495024, "alt_km": 339.07358067408677, "timestamp": "2025-12-19T06:59:42.651363+00:00", "meta": {"OBJECT_NAME": "STARLINK-35646", "OBJECT_ID": "2025-281M", "EPOCH": "2025-12-18T22:00:00.999936", "MEAN_MOTION": 15.75095017, "ECCENTRICITY": 0.00016428, "INCLINATION": 43.0009, "RA_OF_ASC_NODE": 84.4251, "ARG_OF_PERICENTER": 269.2824, "MEAN_ANOMALY": 228.4835, "EPHEMERIS_TYPE": 0, "CLASSIFICATION_TYPE": "U", "NORAD_CAT_ID": 66859, "ELEMENT_SET_NO": 999, "REV_AT_EPOCH": 239, "BSTAR": -0.00054903409, "MEAN_MOTION_DOT": -0.00084184, "MEAN_MOTION_DDOT": 0}, "tle": {"line1": "1 66859U 25281M   25352.91667824 -.00084184  00000+0 -54903-3 0  9992", "line2": "2 66859  43.0009  84.4251 0001642 269.2824 228.4835 15.75095017  2398"}}, "geometry": {"type": "Point", "coordinates": [-167.06970647495024, 41.063934896365716]}}, {"type": "Feature", "properties": {"norad_id": 66860, "name": "STARLINK-35987", "group": "last-30-days", "lat": 38.12207354527405, "lon": -155.2375653959126, "alt_km": 339.4271485871268, "timestamp": "2025-12-19T06:59:42.651373+00:00", "meta": {"OBJECT_NAME": "STARLINK-35987", "OBJECT_ID": "2025-281N", "EPOCH": "2025-12-18T22:00:00.999936", "MEAN_MOTION": 15.75055087, "ECCENTRICITY": 0.00015844, "INCLINATION": 43.0007, "RA_OF_ASC_NODE": 84.4, "ARG_OF_PERICENTER": 277.3797, "MEAN_ANOMALY": 229.9782, "EPHEMERIS_TYPE": 0, "CLASSIFICATION_TYPE": "U", "NORAD_CAT_ID": 66860, "ELEMENT_SET_NO": 999, "REV_AT_EPOCH": 239, "BSTAR": -4.6161792e-05, "MEAN_MOTION_DOT": -7.567e-05, "MEAN_MOTION_DDOT": 0}, "tle": {"line1": "1 66860U 25281N   25352.91667824 -.00007567  00000+0 -46162-4 0  9993", "line2": "2 66860  43.0007  84.4000 0001584 277.3797 229.9782 15.75055087  2394"}}, "geometry": {"type": "Point", "coordinates": [-155.2375653959126, 38.12207354527405]}}, {"type": "Feature", "properties": {"norad_id": 66861, "name": "STARLINK-35991", "group": "last-30-days", "lat": 40.0312953435315, "lon": -162.20971789053272, "alt_km": 339.32985707915395, "timestamp": "2025-12-19T06:59:42.651383+00:00", "meta": {"OBJECT_NAME": "STARLINK-35991", "OBJECT_ID": "2025-281P", "EPOCH": "2025-12-18T22:00:00.999936", "MEAN_MOTION": 15.7510859, "ECCENTRICITY": 0.0001746, "INCLINATION": 43.0007, "RA_OF_ASC_NODE": 84.4152, "ARG_OF_PERICENTER": 270.312, "MEAN_ANOMALY": 231.2909, "EPHEMERIS_TYPE": 0, "CLASSIFICATION_TYPE": "U", "NORAD_CAT_ID": 66861, "ELEMENT_SET_NO": 999, "REV_AT_EPOCH": 239, "BSTAR": -0.00078099555, "MEAN_MOTION_DOT": -0.00119132, "MEAN_MOTION_DDOT": 0}, "tle": {"line1": "1 66861U 25281P   25352.91667824 -.00119132  00000+0 -78100-3 0  9992", "line2": "2 66861  43.0007  84.4152 0001746 270.3120 231.2909 15.75108590  2391"}}, "geometry": {"type": "Point", "coordinates": [-162.20971789053272, 40.0312953435315]}}, {"type": "Feature", "properties": {"norad_id": 66862, "name": "STARLINK-35974", "group": "last-30-days", "lat": 40.57465747418707, "lon": -164.62791432894525, "alt_km": 339.37071488176025, "timestamp": "2025-12-19T06:59:42.651432+00:00", "meta": {"OBJECT_NAME": "STARLINK-35974", "OBJECT_ID": "2025-281Q", "EPOCH": "2025-12-18T22:00:00.999936", "MEAN_MOTION": 15.7509011, "ECCENTRICITY": 0.00019629, "INCLINATION": 43.0008, "RA_OF_ASC_NODE": 84.4201, "ARG_OF_PERICENTER": 267.1706, "MEAN_ANOMALY": 232.522, "EPHEMERIS_TYPE": 0, "CLASSIFICATION_TYPE": "U", "NORAD_CAT_ID": 66862, "ELEMENT_SET_NO": 999, "REV_AT_EPOCH": 228, "BSTAR": -0.00061521471, "MEAN_MOTION_DOT": -0.00094149, "MEAN_MOTION_DDOT": 0}, "tle": {"line1": "1 66862U 25281Q   25352.91667824 -.00094149  00000+0 -61521-3 0  9992", "line2": "2 66862  43.0008  84.4201 0001962 267.1706 232.5220 15.75090110  2288"}}, "geometry": {"type": "Point", "coordinates": [-164.62791432894525, 40.57465747418707]}}, {"type": "Feature", "properties": {"norad_id": 66863, "name": "STARLINK-36134", "group": "last-30-days", "lat": 39.44329155651216, "lon": -159.84941048452868, "alt_km": 339.40287452932535, "timestamp": "2025-12-19T06:59:42.651447+00:00", "meta": {"OBJECT_NAME": "STARLINK-36134", "OBJECT_ID": "2025-281R", "EPOCH": "2025-12-18T22:00:00.999936", "MEAN_MOTION": 15.75102692, "ECCENTRICITY": 0.00017569, "INCLINATION": 43.0009, "RA_OF_ASC_NODE": 84.4104, "ARG_OF_PERICENTER": 264.5824, "MEAN_ANOMALY": 238.9428, "EPHEMERIS_TYPE": 0, "CLASSIFICATION_TYPE": "U", "NORAD_CAT_ID": 66863, "ELEMENT_SET_NO": 999, "REV_AT_EPOCH": 239, "BSTAR": -0.00081889016, "MEAN_MOTION_DOT": -0.00124775, "MEAN_MOTION_DDOT": 0}, "tle": {"line1": "1 66863U 25281R   25352.91667824 -.00124775  00000+0 -81889-3 0  9991", "line2": "2 66863  43.0009  84.4104 0001756 264.5824 238.9428 15.75102692  2396"}}, "geometry": {"type": "Point", "coordinates": [-159.84941048452868, 39.44329155651216]}}, {"type": "Feature", "properties": {"norad_id": 66864, "name": "STARLINK-36070", "group": "last-30-days", "lat": 38.80257882840458, "lon": -157.51209750556168, "alt_km": 339.3951377400981, "timestamp": "2025-12-19T06:59:42.651460+00:00", "meta": {"OBJECT_NAME": "STARLINK-36070", "OBJECT_ID": "2025-281S", "EPOCH": "2025-12-18T22:00:00.999936", "MEAN_MOTION": 15.75095891, "ECCENTRICITY": 0.00016503, "INCLINATION": 43.0007, "RA_OF_ASC_NODE": 84.4055, "ARG_OF_PERICENTER": 266.1521, "MEAN_ANOMALY": 239.2926, "EPHEMERIS_TYPE": 0, "CLASSIFICATION_TYPE": "U", "NORAD_CAT_ID": 66864, "ELEMENT_SET_NO": 999, "REV_AT_EPOCH": 242, "BSTAR": -0.00064731101, "MEAN_MOTION_DOT": -0.00098999, "MEAN_MOTION_DDOT": 0}, "tle": {"line1": "1 66864U 25281S   25352.91667824 -.00098999  00000+0 -64731-3 0  9997", "line2": "2 66864  43.0007  84.4055 0001650 266.1521 239.2926 15.75095891  2428"}}, "geometry": {"type": "Point", "coordinates": [-157.51209750556168, 38.80257882840458]}}, {"type": "Feature", "properties": {"norad_id": 66865, "name": "STARLINK-36117", "group": "last-30-days", "lat": 37.393030125780726, "lon": -152.9890298332438, "alt_km": 339.6418772364141, "timestamp": "2025-12-19T06:59:42.651470+00:00", "meta": {"OBJECT_NAME": "STARLINK-36117", "OBJECT_ID": "2025-281T", "EPOCH": "2025-12-18T22:00:00.999936", "MEAN_MOTION": 15.75101584, "ECCENTRICITY": 0.00016352, "INCLINATION": 43.0007, "RA_OF_ASC_NODE": 84.3962, "ARG_OF_PERICENTER": 274.5084, "MEAN_ANOMALY": 234.7603, "EPHEMERIS_TYPE": 0, "CLASSIFICATION_TYPE": "U", "NORAD_CAT_ID": 66865, "ELEMENT_SET_NO": 999, "REV_AT_EPOCH": 239, "BSTAR": -0.0006922841, "MEAN_MOTION_DOT": -0.00105786, "MEAN_MOTION_DDOT": 0}, "tle": {"line1": "1 66865U 25281T   25352.91667824 -.00105786  00000+0 -69228-3 0  9997", "line2": "2 66865  43.0007  84.3962 0001635 274.5084 234.7603 15.75101584  2390"}}, "geometry": {"type": "Point", "coordinates": [-152.9890298332438, 37.393030125780726]}}, {"type": "Feature", "properties": {"norad_id": 66866, "name": "STARLINK-36126", "group": "last-30-days", "lat": 36.62479783339565, "lon": -150.79374942596175, "alt_km": 339.74476536491056, "timestamp": "2025-12-19T06:59:42.651480+00:00", "meta": {"OBJECT_NAME": "STARLINK-36126", "OBJECT_ID": "2025-281U", "EPOCH": "2025-12-18T22:00:00.999936", "MEAN_MOTION": 15.75114031, "ECCENTRICITY": 0.00017696, "INCLINATION": 43.0007, "RA_OF_ASC_NODE": 84.3912, "ARG_OF_PERICENTER": 266.9219, "MEAN_ANOMALY": 244.252, "EPHEMERIS_TYPE": 0, "CLASSIFICATION_TYPE": "U", "NORAD_CAT_ID": 66866, "ELEMENT_SET_NO": 999, "REV_AT_EPOCH": 242, "BSTAR": -0.00073397344, "MEAN_MOTION_DOT": -0.00112108, "MEAN_MOTION_DDOT": 0}, "tle": {"line1": "1 66866U 25281U   25352.91667824 -.00112108  00000+0 -73397-3 0  9996", "line2": "2 66866  43.0007  84.3912 0001769 266.9219 244.2520 15.75114031  2428"}}, "geometry": {"type": "Point", "coordinates": [-150.79374942596175, 36.62479783339565]}}]}